[{"OBJECT_NAME":"STARLINK-2440","OBJECT_ID":"2021-027P","EPOCH":"2026-03-10T00:00:02.999808","MEAN_MOTION":15.26632507,"ECCENTRICITY":0.0001349,"INCLINATION":53.1427,"RA_OF_ASC_NODE":99.4722,"ARG_OF_PERICENTER":82.5346,"MEAN_ANOMALY":301.8007,"EPHEMERIS_TYPE":0,"CLASSIFICATION_TYPE":"U","NORAD_CAT_ID":48105,"ELEMENT_SET_NO":999,"REV_AT_EPOCH":579,"BSTAR":0.063164242,"MEAN_MOTION_DOT":0.0184398,"MEAN_MOTION_DDOT":0},{"OBJECT_NAME":"FLOCK 4BE-2","OBJECT_ID":"2024-149AV","EPOCH":"2026-03-09T18:13:11.817984","MEAN_MOTION":15.43222987,"ECCENTRICITY":0.00028517,"INCLINATION":97.3841,"RA_OF_ASC_NODE":153.9677,"ARG_OF_PERICENTER":272.6636,"MEAN_ANOMALY":87.4286,"EPHEMERIS_TYPE":0,"CLASSIFICATION_TYPE":"U","NORAD_CAT_ID":60511,"ELEMENT_SET_NO":999,"REV_AT_EPOCH":8712,"BSTAR":0.0010005799,"MEAN_MOTION_DOT":0.0004454,"MEAN_MOTION_DDOT":0}]
